SL-3 R/B                
1 13403U 82079B   26070.89803939  .00007106  00000+0  28261-3 0  9996
2 13403  81.1477 190.4699 0025127 157.3596 202.8752 15.24836693378036
SL-14 R/B               
1 13553U 82092B   26070.60560322  .00000537  00000+0  57584-4 0  9994
2 13553  82.5691 139.6076 0018924 296.6491 178.9685 14.86668450329212
SL-3 R/B                
1 13819U 83010B   26070.83159953  .00017541  00000+0  35119-3 0  9991
2 13819  81.1062 359.6214 0017803  44.0687 316.1973 15.46441342358279
SL-3 R/B                
1 14208U 83075B   26070.96359555  .00011741  00000+0  30931-3 0  9992
2 14208  97.6147  75.6270 0020322 217.2153 142.7684 15.38478135330506
COSMOS 1536             
1 14699U 84013A   26070.55855982  .00007202  00000+0  29679-3 0  9993
2 14699  82.5431 105.9926 0012500 275.9545  84.0268 15.23853403272903
SL-14 R/B               
1 14820U 84027B   26070.91527705  .00000574  00000+0  62855-4 0  9992
2 14820  82.5389 242.9247 0017190 330.2768  29.7470 14.85978907247964
SL-8 R/B                
1 15483U 85006B   26070.96351259  .00000358  00000+0  12719-3 0  9993
2 15483  74.0432 256.9639 0018362 174.2338 295.6293 14.37784706154352
SL-12 R/B(2)            
1 15772U 85042D   26070.75603301  .00000123  00000+0  76550-4 0  9993
2 15772  71.1062  83.3626 0033146 124.7445  48.0948 14.21982942114688
SL-14 R/B               
1 15945U 85069B   26070.89938626  .00000619  00000+0  67183-4 0  9992
2 15945  82.5289  22.8554 0018678 180.3390 179.7818 14.86435910173160
SL-16 R/B               
1 16182U 85097B   26070.62023986 -.00000167  00000+0 -59713-4 0  9992
2 16182  71.0024 136.4904 0009872 257.4680 212.2859 14.16598382 87505
SL-14 R/B               
1 16496U 86006B   26070.94317562  .00000754  00000+0  77679-4 0  9993
2 16496  82.5236 257.6157 0075060 265.1646  94.0997 14.86818206149540
COSMOS 1743             
1 16719U 86034A   26070.95329925  .00035928  00000+0  46515-3 0  9994
2 16719  82.5294  71.4548 0001473 270.6447  89.4640 15.58727740180602
