CCSDS_OMM_VERS = 2.0
CREATION_DATE  = 
ORIGINATOR     = 

OBJECT_NAME    = SL-3 R/B
OBJECT_ID      = 1982-079B
CENTER_NAME    = EARTH
REF_FRAME      = TEME
TIME_SYSTEM    = UTC
MEAN_ELEMENT_THEORY = SGP/SGP4

EPOCH          = 2026-03-11T21:33:10.603296
MEAN_MOTION    = 15.24836693
ECCENTRICITY   = .00251272
INCLINATION    = 81.1477
RA_OF_ASC_NODE = 190.4699
ARG_OF_PERICENTER = 157.3596
MEAN_ANOMALY   = 202.8752

EPHEMERIS_TYPE = 0
CLASSIFICATION_TYPE = U
NORAD_CAT_ID   = 13403
ELEMENT_SET_NO = 999
REV_AT_EPOCH   = 37803
BSTAR          = .28261262E-3
MEAN_MOTION_DOT = .7106E-4
MEAN_MOTION_DDOT = 0

CCSDS_OMM_VERS = 2.0
CREATION_DATE  = 
ORIGINATOR     = 

OBJECT_NAME    = SL-14 R/B
OBJECT_ID      = 1982-092B
CENTER_NAME    = EARTH
REF_FRAME      = TEME
TIME_SYSTEM    = UTC
MEAN_ELEMENT_THEORY = SGP/SGP4

EPOCH          = 2026-03-11T14:32:04.118208
MEAN_MOTION    = 14.86668450
ECCENTRICITY   = .00189246
INCLINATION    = 82.5691
RA_OF_ASC_NODE = 139.6076
ARG_OF_PERICENTER = 296.6491
MEAN_ANOMALY   = 178.9685

EPHEMERIS_TYPE = 0
CLASSIFICATION_TYPE = U
NORAD_CAT_ID   = 13553
ELEMENT_SET_NO = 999
REV_AT_EPOCH   = 32921
BSTAR          = .57583866E-4
MEAN_MOTION_DOT = .537E-5
MEAN_MOTION_DDOT = 0

CCSDS_OMM_VERS = 2.0
CREATION_DATE  = 
ORIGINATOR     = 

OBJECT_NAME    = SL-3 R/B
OBJECT_ID      = 1983-010B
CENTER_NAME    = EARTH
REF_FRAME      = TEME
TIME_SYSTEM    = UTC
MEAN_ELEMENT_THEORY = SGP/SGP4

EPOCH          = 2026-03-11T19:57:30.199392
MEAN_MOTION    = 15.46441342
ECCENTRICITY   = .00178035
INCLINATION    = 81.1062
RA_OF_ASC_NODE = 359.6214
ARG_OF_PERICENTER = 44.0687
MEAN_ANOMALY   = 316.1973

EPHEMERIS_TYPE = 0
CLASSIFICATION_TYPE = U
NORAD_CAT_ID   = 13819
ELEMENT_SET_NO = 999
REV_AT_EPOCH   = 35827
BSTAR          = .35119354E-3
MEAN_MOTION_DOT = .17541E-3
MEAN_MOTION_DDOT = 0

CCSDS_OMM_VERS = 2.0
CREATION_DATE  = 
ORIGINATOR     = 

OBJECT_NAME    = SL-3 R/B
OBJECT_ID      = 1983-075B
CENTER_NAME    = EARTH
REF_FRAME      = TEME
TIME_SYSTEM    = UTC
MEAN_ELEMENT_THEORY = SGP/SGP4

EPOCH          = 2026-03-11T23:07:34.655520
MEAN_MOTION    = 15.38478135
ECCENTRICITY   = .00203221
INCLINATION    = 97.6147
RA_OF_ASC_NODE = 75.6270
ARG_OF_PERICENTER = 217.2153
MEAN_ANOMALY   = 142.7684

EPHEMERIS_TYPE = 0
CLASSIFICATION_TYPE = U
NORAD_CAT_ID   = 14208
ELEMENT_SET_NO = 999
REV_AT_EPOCH   = 33050
BSTAR          = .30931479E-3
MEAN_MOTION_DOT = .11741E-3
MEAN_MOTION_DDOT = 0

CCSDS_OMM_VERS = 2.0
CREATION_DATE  = 
ORIGINATOR     = 

OBJECT_NAME    = COSMOS 1536
OBJECT_ID      = 1984-013A
CENTER_NAME    = EARTH
REF_FRAME      = TEME
TIME_SYSTEM    = UTC
MEAN_ELEMENT_THEORY = SGP/SGP4

EPOCH          = 2026-03-11T13:24:19.568448
MEAN_MOTION    = 15.23853403
ECCENTRICITY   = .00125009
INCLINATION    = 82.5431
RA_OF_ASC_NODE = 105.9926
ARG_OF_PERICENTER = 275.9545
MEAN_ANOMALY   = 84.0268

EPHEMERIS_TYPE = 0
CLASSIFICATION_TYPE = U
NORAD_CAT_ID   = 14699
ELEMENT_SET_NO = 999
REV_AT_EPOCH   = 27290
BSTAR          = .29678738E-3
MEAN_MOTION_DOT = .7202E-4
MEAN_MOTION_DDOT = 0

CCSDS_OMM_VERS = 2.0
CREATION_DATE  = 
ORIGINATOR     = 

OBJECT_NAME    = SL-14 R/B
OBJECT_ID      = 1984-027B
CENTER_NAME    = EARTH
REF_FRAME      = TEME
TIME_SYSTEM    = UTC
MEAN_ELEMENT_THEORY = SGP/SGP4

EPOCH          = 2026-03-11T21:57:59.937120
MEAN_MOTION    = 14.85978907
ECCENTRICITY   = .00171901
INCLINATION    = 82.5389
RA_OF_ASC_NODE = 242.9247
ARG_OF_PERICENTER = 330.2768
MEAN_ANOMALY   = 29.7470

EPHEMERIS_TYPE = 0
CLASSIFICATION_TYPE = U
NORAD_CAT_ID   = 14820
ELEMENT_SET_NO = 999
REV_AT_EPOCH   = 24796
BSTAR          = .62855032E-4
MEAN_MOTION_DOT = .574E-5
MEAN_MOTION_DDOT = 0

CCSDS_OMM_VERS = 2.0
CREATION_DATE  = 
ORIGINATOR     = 

OBJECT_NAME    = SL-8 R/B
OBJECT_ID      = 1985-006B
CENTER_NAME    = EARTH
REF_FRAME      = TEME
TIME_SYSTEM    = UTC
MEAN_ELEMENT_THEORY = SGP/SGP4

EPOCH          = 2026-03-11T23:07:27.487776
MEAN_MOTION    = 14.37784706
ECCENTRICITY   = .00183629
INCLINATION    = 74.0432
RA_OF_ASC_NODE = 256.9639
ARG_OF_PERICENTER = 174.2338
MEAN_ANOMALY   = 295.6293

EPHEMERIS_TYPE = 0
CLASSIFICATION_TYPE = U
NORAD_CAT_ID   = 15483
ELEMENT_SET_NO = 999
REV_AT_EPOCH   = 15435
BSTAR          = .12719307E-3
MEAN_MOTION_DOT = .358E-5
MEAN_MOTION_DDOT = 0

CCSDS_OMM_VERS = 2.0
CREATION_DATE  = 
ORIGINATOR     = 

OBJECT_NAME    = SL-12 R/B(2)
OBJECT_ID      = 1985-042D
CENTER_NAME    = EARTH
REF_FRAME      = TEME
TIME_SYSTEM    = UTC
MEAN_ELEMENT_THEORY = SGP/SGP4

EPOCH          = 2026-03-11T18:08:41.252064
MEAN_MOTION    = 14.21982942
ECCENTRICITY   = .00331469
INCLINATION    = 71.1062
RA_OF_ASC_NODE = 83.3626
ARG_OF_PERICENTER = 124.7445
MEAN_ANOMALY   = 48.0948

EPHEMERIS_TYPE = 0
CLASSIFICATION_TYPE = U
NORAD_CAT_ID   = 15772
ELEMENT_SET_NO = 999
REV_AT_EPOCH   = 11468
BSTAR          = .76550391E-4
MEAN_MOTION_DOT = .123E-5
MEAN_MOTION_DDOT = 0

CCSDS_OMM_VERS = 2.0
CREATION_DATE  = 
ORIGINATOR     = 

OBJECT_NAME    = SL-14 R/B
OBJECT_ID      = 1985-069B
CENTER_NAME    = EARTH
REF_FRAME      = TEME
TIME_SYSTEM    = UTC
MEAN_ELEMENT_THEORY = SGP/SGP4

EPOCH          = 2026-03-11T21:35:06.972864
MEAN_MOTION    = 14.86435910
ECCENTRICITY   = .0018678
INCLINATION    = 82.5289
RA_OF_ASC_NODE = 22.8554
ARG_OF_PERICENTER = 180.3390
MEAN_ANOMALY   = 179.7818

EPHEMERIS_TYPE = 0
CLASSIFICATION_TYPE = U
NORAD_CAT_ID   = 15945
ELEMENT_SET_NO = 999
REV_AT_EPOCH   = 17316
BSTAR          = .67182526E-4
MEAN_MOTION_DOT = .619E-5
MEAN_MOTION_DDOT = 0

CCSDS_OMM_VERS = 2.0
CREATION_DATE  = 
ORIGINATOR     = 

OBJECT_NAME    = SL-16 R/B
OBJECT_ID      = 1985-097B
CENTER_NAME    = EARTH
REF_FRAME      = TEME
TIME_SYSTEM    = UTC
MEAN_ELEMENT_THEORY = SGP/SGP4

EPOCH          = 2026-03-11T14:53:08.723904
MEAN_MOTION    = 14.16598382
ECCENTRICITY   = .00098725
INCLINATION    = 71.0024
RA_OF_ASC_NODE = 136.4904
ARG_OF_PERICENTER = 257.4680
MEAN_ANOMALY   = 212.2859

EPHEMERIS_TYPE = 0
CLASSIFICATION_TYPE = U
NORAD_CAT_ID   = 16182
ELEMENT_SET_NO = 999
REV_AT_EPOCH   = 8750
BSTAR          = -.59713407E-4
MEAN_MOTION_DOT = -.167E-5
MEAN_MOTION_DDOT = 0

CCSDS_OMM_VERS = 2.0
CREATION_DATE  = 
ORIGINATOR     = 

OBJECT_NAME    = SL-14 R/B
OBJECT_ID      = 1986-006B
CENTER_NAME    = EARTH
REF_FRAME      = TEME
TIME_SYSTEM    = UTC
MEAN_ELEMENT_THEORY = SGP/SGP4

EPOCH          = 2026-03-11T22:38:10.373568
MEAN_MOTION    = 14.86818206
ECCENTRICITY   = .00750601
INCLINATION    = 82.5236
RA_OF_ASC_NODE = 257.6157
ARG_OF_PERICENTER = 265.1646
MEAN_ANOMALY   = 94.0997

EPHEMERIS_TYPE = 0
CLASSIFICATION_TYPE = U
NORAD_CAT_ID   = 16496
ELEMENT_SET_NO = 999
REV_AT_EPOCH   = 14954
BSTAR          = .77678697E-4
MEAN_MOTION_DOT = .754E-5
MEAN_MOTION_DDOT = 0

CCSDS_OMM_VERS = 2.0
CREATION_DATE  = 
ORIGINATOR     = 

OBJECT_NAME    = COSMOS 1743
OBJECT_ID      = 1986-034A
CENTER_NAME    = EARTH
REF_FRAME      = TEME
TIME_SYSTEM    = UTC
MEAN_ELEMENT_THEORY = SGP/SGP4

EPOCH          = 2026-03-11T22:52:45.055200
MEAN_MOTION    = 15.58727740
ECCENTRICITY   = .00014736
INCLINATION    = 82.5294
RA_OF_ASC_NODE = 71.4548
ARG_OF_PERICENTER = 270.6447
MEAN_ANOMALY   = 89.4640

EPHEMERIS_TYPE = 0
CLASSIFICATION_TYPE = U
NORAD_CAT_ID   = 16719
ELEMENT_SET_NO = 999
REV_AT_EPOCH   = 18060
BSTAR          = .46515184E-3
MEAN_MOTION_DOT = .35928E-3
MEAN_MOTION_DDOT = 0

